start=new Date('2022-11-27T00:00:00.000Z').valueOf();
sats=[{"MEAN_MOTION":"15.06409944","TIME_SYSTEM":"UTC","DECAY_DATE":null,"OBJECT_TYPE":"PAYLOAD","SEMIMAJOR_AXIS":"6925.318","OBJECT_ID":"2021-017AM","CENTER_NAME":"EARTH","INCLINATION":"53.0529","BSTAR":"0.00018041000000","EPHEMERIS_TYPE":"0","RA_OF_ASC_NODE":"193.2342","RCS_SIZE":"LARGE","TLE_LINE1":"1 47757U 21017AM  22330.88958449  .00002407  00000-0  18041-3 0  9996","EPOCH":"2022-11-26T21:21:00.099936","PERIAPSIS":"545.804","REF_FRAME":"TEME","MEAN_MOTION_DDOT":"0.0000000000000","TLE_LINE2":"2 47757  53.0529 193.2342 0001992  63.3198 296.7995 15.06409944 97039","ELEMENT_SET_NO":"999","ECCENTRICITY":"0.00019920","OBJECT_NAME":"STARLINK-2175","REV_AT_EPOCH":"9703","MEAN_MOTION_DOT":"0.00002407","ARG_OF_PERICENTER":"63.3198","APOAPSIS":"548.563","MEAN_ELEMENT_THEORY":"SGP4","PERIOD":"95.592","MEAN_ANOMALY":"296.7995","CLASSIFICATION_TYPE":"U","COUNTRY_CODE":"US","GP_ID":"218892596","FILE":"3671048","LAUNCH_DATE":"2021-03-04","NORAD_CAT_ID":"47757","SITE":"AFETR"},{"CENTER_NAME":"EARTH","OBJECT_ID":"2021-017AQ","INCLINATION":"53.0543","BSTAR":"0.00009912900000","EPHEMERIS_TYPE":"0","RA_OF_ASC_NODE":"203.6984","RCS_SIZE":"LARGE","DECAY_DATE":null,"MEAN_MOTION":"15.06409605","TIME_SYSTEM":"UTC","SEMIMAJOR_AXIS":"6925.319","OBJECT_TYPE":"PAYLOAD","MEAN_ANOMALY":"302.0337","APOAPSIS":"548.406","MEAN_ELEMENT_THEORY":"SGP4","PERIOD":"95.592","LAUNCH_DATE":"2021-03-04","FILE":"3671048","CLASSIFICATION_TYPE":"U","COUNTRY_CODE":"US","GP_ID":"218892346","NORAD_CAT_ID":"47760","SITE":"AFETR","TLE_LINE1":"1 47760U 21017AQ  22330.78913474  .00001196  00000-0  99129-4 0  9999","EPOCH":"2022-11-26T18:56:21.241536","TLE_LINE2":"2 47760  53.0543 203.6984 0001764  58.0823 302.0337 15.06409605 96911","ELEMENT_SET_NO":"999","ECCENTRICITY":"0.00017640","PERIAPSIS":"545.962","REF_FRAME":"TEME","MEAN_MOTION_DDOT":"0.0000000000000","MEAN_MOTION_DOT":"0.00001196","ARG_OF_PERICENTER":"58.0823","OBJECT_NAME":"STARLINK-2178","REV_AT_EPOCH":"9691"},{"EPHEMERIS_TYPE":"0","BSTAR":"0.00010201000000","RCS_SIZE":"LARGE","RA_OF_ASC_NODE":"193.2631","CENTER_NAME":"EARTH","OBJECT_ID":"2021-017AR","INCLINATION":"53.0544","DECAY_DATE":null,"TIME_SYSTEM":"UTC","MEAN_MOTION":"15.06405384","SEMIMAJOR_AXIS":"6925.332","OBJECT_TYPE":"PAYLOAD","SITE":"AFETR","NORAD_CAT_ID":"47761","MEAN_ANOMALY":"278.9346","MEAN_ELEMENT_THEORY":"SGP4","APOAPSIS":"548.293","PERIOD":"95.592","FILE":"3671048","LAUNCH_DATE":"2021-03-04","COUNTRY_CODE":"US","GP_ID":"218891095","CLASSIFICATION_TYPE":"U","ELEMENT_SET_NO":"999","ECCENTRICITY":"0.00015820","TLE_LINE2":"2 47761  53.0544 193.2631 0001582  81.1822 278.9346 15.06405384 97046","MEAN_MOTION_DDOT":"0.0000000000000","PERIAPSIS":"546.101","REF_FRAME":"TEME","ARG_OF_PERICENTER":"81.1822","MEAN_MOTION_DOT":"0.00001238","REV_AT_EPOCH":"9704","OBJECT_NAME":"STARLINK-2179","TLE_LINE1":"1 47761U 21017AR  22330.88590017  .00001238  00000-0  10201-3 0  9995","EPOCH":"2022-11-26T21:15:41.774688"},{"OBJECT_ID":"2021-017AS","CENTER_NAME":"EARTH","INCLINATION":"53.0541","EPHEMERIS_TYPE":"0","BSTAR":"0.00007343100000","RCS_SIZE":"LARGE","RA_OF_ASC_NODE":"208.7593","TIME_SYSTEM":"UTC","MEAN_MOTION":"15.06399495","DECAY_DATE":null,"OBJECT_TYPE":"PAYLOAD","SEMIMAJOR_AXIS":"6925.350","APOAPSIS":"548.813","MEAN_ELEMENT_THEORY":"SGP4","PERIOD":"95.592","MEAN_ANOMALY":"316.8641","COUNTRY_CODE":"US","GP_ID":"218891845","CLASSIFICATION_TYPE":"U","LAUNCH_DATE":"2021-03-04","FILE":"3671048","SITE":"AFETR","NORAD_CAT_ID":"47762","TLE_LINE1":"1 47762U 21017AS  22330.77946958  .00000812  00000-0  73431-4 0  9995","EPOCH":"2022-11-26T18:42:26.171712","REF_FRAME":"TEME","PERIAPSIS":"545.617","MEAN_MOTION_DDOT":"0.0000000000000","ELEMENT_SET_NO":"999","ECCENTRICITY":"0.00023070","TLE_LINE2":"2 47762  53.0541 208.7593 0002307  43.2529 316.8641 15.06399495 96833","REV_AT_EPOCH":"9683","OBJECT_NAME":"STARLINK-2180","ARG_OF_PERICENTER":"43.2529","MEAN_MOTION_DOT":"0.00000812"},{"RCS_SIZE":"LARGE","RA_OF_ASC_NODE":"198.9640","EPHEMERIS_TYPE":"0","BSTAR":"0.00013514000000","INCLINATION":"53.0531","OBJECT_ID":"2021-017AT","CENTER_NAME":"EARTH","OBJECT_TYPE":"PAYLOAD","SEMIMAJOR_AXIS":"6925.353","TIME_SYSTEM":"UTC","MEAN_MOTION":"15.06398705","DECAY_DATE":null,"SITE":"AFETR","NORAD_CAT_ID":"47763","GP_ID":"218892097","COUNTRY_CODE":"US","CLASSIFICATION_TYPE":"U","LAUNCH_DATE":"2021-03-04","FILE":"3671048","APOAPSIS":"548.434","MEAN_ELEMENT_THEORY":"SGP4","PERIOD":"95.592","MEAN_ANOMALY":"303.7846","REV_AT_EPOCH":"9694","OBJECT_NAME":"STARLINK-2181","ARG_OF_PERICENTER":"56.3311","MEAN_MOTION_DOT":"0.00001732","PERIAPSIS":"546.001","MEAN_MOTION_DDOT":"0.0000000000000","REF_FRAME":"TEME","ECCENTRICITY":"0.00017560","ELEMENT_SET_NO":"999","TLE_LINE2":"2 47763  53.0531 198.9640 0001756  56.3311 303.7846 15.06398705 96944","EPOCH":"2022-11-26T17:29:27.159648","TLE_LINE1":"1 47763U 21017AT  22330.72878657  .00001732  00000-0  13514-3 0  9998"},{"NORAD_CAT_ID":"47764","SITE":"AFETR","CLASSIFICATION_TYPE":"U","GP_ID":"218892846","COUNTRY_CODE":"US","FILE":"3671048","LAUNCH_DATE":"2021-03-04","APOAPSIS":"548.453","PERIOD":"95.592","MEAN_ELEMENT_THEORY":"SGP4","MEAN_ANOMALY":"299.7414","OBJECT_NAME":"STARLINK-2182","REV_AT_EPOCH":"9684","MEAN_MOTION_DOT":"0.00000660","ARG_OF_PERICENTER":"60.3753","MEAN_MOTION_DDOT":"0.0000000000000","PERIAPSIS":"545.971","REF_FRAME":"TEME","TLE_LINE2":"2 47764  53.0547 209.4017 0001792  60.3753 299.7414 15.06400479 96849","ELEMENT_SET_NO":"999","ECCENTRICITY":"0.00017920","EPOCH":"2022-11-26T15:10:07.629600","TLE_LINE1":"1 47764U 21017AU  22330.63203275  .00000660  00000-0  63182-4 0  9993","RA_OF_ASC_NODE":"209.4017","RCS_SIZE":"LARGE","BSTAR":"0.00006318200000","EPHEMERIS_TYPE":"0","INCLINATION":"53.0547","OBJECT_ID":"2021-017AU","CENTER_NAME":"EARTH","OBJECT_TYPE":"PAYLOAD","SEMIMAJOR_AXIS":"6925.347","MEAN_MOTION":"15.06400479","TIME_SYSTEM":"UTC","DECAY_DATE":null},{"EPOCH":"2022-11-26T15:35:18.262752","TLE_LINE1":"1 47766U 21017AW  22330.64951693  .00002017  00000-0  15429-3 0  9998","OBJECT_NAME":"STARLINK-2184","REV_AT_EPOCH":"9678","MEAN_MOTION_DOT":"0.00002017","ARG_OF_PERICENTER":"49.2740","REF_FRAME":"TEME","PERIAPSIS":"545.897","MEAN_MOTION_DDOT":"0.0000000000000","TLE_LINE2":"2 47766  53.0544 209.3182 0001890  49.2740 310.8413 15.06402507 96782","ECCENTRICITY":"0.00018900","ELEMENT_SET_NO":"999","CLASSIFICATION_TYPE":"U","GP_ID":"218891595","COUNTRY_CODE":"US","FILE":"3671048","LAUNCH_DATE":"2021-03-04","APOAPSIS":"548.515","MEAN_ELEMENT_THEORY":"SGP4","PERIOD":"95.592","MEAN_ANOMALY":"310.8413","NORAD_CAT_ID":"47766","SITE":"AFETR","OBJECT_TYPE":"PAYLOAD","SEMIMAJOR_AXIS":"6925.341","MEAN_MOTION":"15.06402507","TIME_SYSTEM":"UTC","DECAY_DATE":null,"INCLINATION":"53.0544","OBJECT_ID":"2021-017AW","CENTER_NAME":"EARTH","RA_OF_ASC_NODE":"209.3182","RCS_SIZE":"LARGE","BSTAR":"0.00015429000000","EPHEMERIS_TYPE":"0"},{"OBJECT_NAME":"STARLINK-2185","REV_AT_EPOCH":"9707","MEAN_MOTION_DOT":"0.00000859","ARG_OF_PERICENTER":"57.9521","PERIAPSIS":"546.021","MEAN_MOTION_DDOT":"0.0000000000000","REF_FRAME":"TEME","TLE_LINE2":"2 47767  53.0552 193.9137 0001725  57.9521 302.1636 15.06399214 97074","ECCENTRICITY":"0.00017250","ELEMENT_SET_NO":"999","EPOCH":"2022-11-26T17:48:41.491296","TLE_LINE1":"1 47767U 21017AX  22330.74214689  .00000859  00000-0  76582-4 0  9997","NORAD_CAT_ID":"47767","SITE":"AFETR","CLASSIFICATION_TYPE":"U","GP_ID":"218891346","COUNTRY_CODE":"US","LAUNCH_DATE":"2021-03-04","FILE":"3671048","PERIOD":"95.592","APOAPSIS":"548.411","MEAN_ELEMENT_THEORY":"SGP4","MEAN_ANOMALY":"302.1636","OBJECT_TYPE":"PAYLOAD","SEMIMAJOR_AXIS":"6925.351","MEAN_MOTION":"15.06399214","TIME_SYSTEM":"UTC","DECAY_DATE":null,"RA_OF_ASC_NODE":"193.9137","RCS_SIZE":"LARGE","BSTAR":"0.00007658200000","EPHEMERIS_TYPE":"0","INCLINATION":"53.0552","OBJECT_ID":"2021-017AX","CENTER_NAME":"EARTH"},{"EPOCH":"2022-11-26T15:36:44.249760","TLE_LINE1":"1 47768U 21017AY  22330.65051215  .00001506  00000-0  12003-3 0  9999","OBJECT_NAME":"STARLINK-2189","REV_AT_EPOCH":"9681","MEAN_MOTION_DOT":"0.00001506","ARG_OF_PERICENTER":"54.0081","MEAN_MOTION_DDOT":"0.0000000000000","PERIAPSIS":"545.897","REF_FRAME":"TEME","TLE_LINE2":"2 47768  53.0539 209.7170 0001914  54.0081 306.1085 15.06397034 96813","ECCENTRICITY":"0.00019140","ELEMENT_SET_NO":"999","CLASSIFICATION_TYPE":"U","COUNTRY_CODE":"US","GP_ID":"218892597","FILE":"3671048","LAUNCH_DATE":"2021-03-04","APOAPSIS":"548.548","PERIOD":"95.592","MEAN_ELEMENT_THEORY":"SGP4","MEAN_ANOMALY":"306.1085","NORAD_CAT_ID":"47768","SITE":"AFETR","OBJECT_TYPE":"PAYLOAD","SEMIMAJOR_AXIS":"6925.358","MEAN_MOTION":"15.06397034","TIME_SYSTEM":"UTC","DECAY_DATE":null,"INCLINATION":"53.0539","OBJECT_ID":"2021-017AY","CENTER_NAME":"EARTH","RA_OF_ASC_NODE":"209.7170","RCS_SIZE":"LARGE","BSTAR":"0.00012003000000","EPHEMERIS_TYPE":"0"},{"SITE":"AFETR","NORAD_CAT_ID":"47769","LAUNCH_DATE":"2021-03-04","FILE":"3671048","COUNTRY_CODE":"US","GP_ID":"218892347","CLASSIFICATION_TYPE":"U","MEAN_ANOMALY":"298.5125","APOAPSIS":"548.436","MEAN_ELEMENT_THEORY":"SGP4","PERIOD":"95.592","ARG_OF_PERICENTER":"61.6042","MEAN_MOTION_DOT":"0.00001850","REV_AT_EPOCH":"9736","OBJECT_NAME":"STARLINK-2192","ELEMENT_SET_NO":"999","ECCENTRICITY":"0.00017630","TLE_LINE2":"2 47769  53.0533 173.3920 0001763  61.6042 298.5125 15.06399612 97364","PERIAPSIS":"545.994","MEAN_MOTION_DDOT":"0.0000000000000","REF_FRAME":"TEME","EPOCH":"2022-11-26T20:35:53.095488","TLE_LINE1":"1 47769U 21017AZ  22330.85825342  .00001850  00000-0  14310-3 0  9997","RCS_SIZE":"LARGE","RA_OF_ASC_NODE":"173.3920","EPHEMERIS_TYPE":"0","BSTAR":"0.00014310000000","INCLINATION":"53.0533","CENTER_NAME":"EARTH","OBJECT_ID":"2021-017AZ","SEMIMAJOR_AXIS":"6925.350","OBJECT_TYPE":"PAYLOAD","DECAY_DATE":null,"TIME_SYSTEM":"UTC","MEAN_MOTION":"15.06399612"}];
